[{"OBJECT_NAME":"STARLINK-32609","OBJECT_ID":"2024-207T","EPOCH":"2026-03-09T13:28:48.920448","MEAN_MOTION":15.27585596,"ECCENTRICITY":0.00036122,"INCLINATION":42.9994,"RA_OF_ASC_NODE":282.3633,"ARG_OF_PERICENTER":297.0626,"MEAN_ANOMALY":62.9857,"EPHEMERIS_TYPE":0,"CLASSIFICATION_TYPE":"U","NORAD_CAT_ID":61929,"ELEMENT_SET_NO":999,"REV_AT_EPOCH":7470,"BSTAR":0.0010394578,"MEAN_MOTION_DOT":0.0002846,"MEAN_MOTION_DDOT":0},{"OBJECT_NAME":"ELECTRON KICK STAGE R\/B","OBJECT_ID":"2025-061J","EPOCH":"2026-03-09T21:50:35.145600","MEAN_MOTION":15.31602074,"ECCENTRICITY":0.00402669,"INCLINATION":97.5479,"RA_OF_ASC_NODE":52.3854,"ARG_OF_PERICENTER":150.2628,"MEAN_ANOMALY":210.0914,"EPHEMERIS_TYPE":0,"CLASSIFICATION_TYPE":"U","NORAD_CAT_ID":63359,"ELEMENT_SET_NO":999,"REV_AT_EPOCH":5306,"BSTAR":0.0006963674,"MEAN_MOTION_DOT":0.00021749,"MEAN_MOTION_DDOT":0}]
